*******************************************************************************
JPL/HORIZONS                  24835 (1995 SM55)            2013-Dec-01 19:34:10
Rec #: 24835 (+COV)   Soln.date: 2013-Aug-05_20:42:21    # obs: 125 (1982-2012)
 
FK5/J2000.0 helio. ecliptic osc. elements (au, days, deg., period=Julian yrs): 
 
  EPOCH=  2451971.5 ! 2001-Mar-03.00 (CT)          Residual RMS= .49301        
   EC= .1096853611264702   QR= 37.47965850825394   TP= 2465469.0283425273      
   OM= 21.02212965143722   W=  68.97048291072164   IN= 26.99333507726686       
   A= 42.09709340023327    MA= 311.2942589372414   ADIST= 46.7145282922126     
   PER= 273.14068          N= .003608493           ANGMOM= .110937706          
   DAN= 40.0156            DDN= 43.29473           L= 87.6839305               
   B= 25.0656242           MOID= 36.58959961       TP= 2038-Feb-14.5283425273  
 
Asteroid physical parameters (km, seconds, rotational period in hours):        
   GM= n.a.                RAD= n.a.               ROTPER= 8.08                
   H= 4.8                  G= .150                 B-V= n.a.                   
                           ALBEDO= n.a.            STYP= n.a.                  
 
ASTEROID comments: 
1: soln ref.= JPL#11, OCC=3
2: source=ORB
*******************************************************************************
 

 

*******************************************************************************
Ephemeris / WWW_USER Sun Dec  1 19:34:10 2013 Pasadena, USA      / Horizons    
*******************************************************************************
Target body name: 24835 (1995 SM55)               {source: JPL#11}
Center body name: Earth (399)                     {source: DE-0431LE-0431}
Center-site name: San Pedro Martir
*******************************************************************************
Start time      : A.D. 2013-Jan-01 00:00:00.0000 UT      
Stop  time      : A.D. 2014-Dec-31 00:00:00.0000 UT      
Step-size       : 1440 minutes
*******************************************************************************
Target pole/equ : No model available
Target radii    : (unavailable)                                                
Center geodetic : 244.536700,31.0434585,2.8281109 {E-lon(deg),Lat(deg),Alt(km)}
Center cylindric: 244.536700,5471.93108,3271.4810 {E-lon(deg),Dxy(km),Dz(km)}
Center pole/equ : High-precision EOP model        {East-longitude +}
Center radii    : 6378.1 x 6378.1 x 6356.8 km     {Equator, meridian, pole}    
Target primary  : Sun
Vis. interferer : MOON (R_eq= 1737.400) km        {source: DE-0431LE-0431}
Rel. light bend : Sun, EARTH                      {source: DE-0431LE-0431}
Rel. lght bnd GM: 1.3271E+11, 3.9860E+05 km^3/s^2                              
Small-body perts: Yes                             {source: SB431-BIG16}
Atmos refraction: NO (AIRLESS)
RA format       : DEG
Time format     : BOTH
EOP file        : eop.131128.p140219                                           
EOP coverage    : DATA-BASED 1962-JAN-20 TO 2013-NOV-28. PREDICTS-> 2014-FEB-18
Units conversion: 1 au= 149597870.700 km, c= 299792.458 km/s, 1 day= 86400.0 s 
Table cut-offs 1: Elevation (-90.0deg=NO ),Airmass (>38.000=NO), Daylight (NO )
Table cut-offs 2: Solar Elongation (  0.0,180.0=NO ),Local Hour Angle( 0.0=NO )
*******************************************************************************
Initial FK5/J2000.0 heliocentric ecliptic osculating elements (au, days, deg.):
  EPOCH=  2451971.5 ! 2001-Mar-03.00 (CT)          Residual RMS= .49301        
   EC= .1096853611264702   QR= 37.47965850825394   TP= 2465469.0283425273      
   OM= 21.02212965143722   W=  68.97048291072164   IN= 26.99333507726686       
Asteroid physical parameters (km, seconds, rotational period in hours):        
   GM= n.a.                RAD= n.a.               ROTPER= 8.08                
   H= 4.8                  G= .150                 B-V= n.a.                   
                           ALBEDO= n.a.            STYP= n.a.                  
************************************************************************************************************
 Date__(UT)__HR:MN Date_________JDUT     R.A._(J2000.0)_DEC. dRA*cosD d(DEC)/dt            delta      deldot
************************************************************************************************************
$$SOE
 2014-Oct-26 00:00 2456956.500000000 *m   42.80141  30.91422 -3.19278  -0.42766 37.3617988150637  -8.7666544
 2014-Oct-27 00:00 2456957.500000000 *m   42.77632  30.91111 -3.20840  -0.44934 37.3570410014038  -8.2764950
 2014-Oct-28 00:00 2456958.500000000 *m   42.75111  30.90787 -3.22276  -0.47076 37.3525689953314  -7.7835880
 2014-Oct-29 00:00 2456959.500000000 *m   42.72581  30.90448 -3.23585  -0.49189 37.3483842435948  -7.2882411
 2014-Oct-30 00:00 2456960.500000000 *m   42.70042  30.90095 -3.24767  -0.51273 37.3444880172236  -6.7907510
 2014-Oct-31 00:00 2456961.500000000 *m   42.67495  30.89727 -3.25826  -0.53326 37.3408814210856  -6.2913924
 2014-Nov-01 00:00 2456962.500000000 *m   42.64940  30.89346 -3.26761  -0.55349 37.3375654098313  -5.7904072
 2014-Nov-02 00:00 2456963.500000000 *m   42.62380  30.88952 -3.27575  -0.57340 37.3345408099021  -5.2879940
 2014-Nov-03 00:00 2456964.500000000 *m   42.59815  30.88544 -3.28270  -0.59299 37.3318083469008  -4.7843003
 2014-Nov-04 00:00 2456965.500000000 *m   42.57245  30.88123 -3.28848  -0.61226 37.3293686766391  -4.2794183
 2014-Nov-05 00:00 2456966.500000000 *m   42.54672  30.87690 -3.29310  -0.63122 37.3272224166028  -3.7733881
 2014-Nov-06 00:00 2456967.500000000 *    42.52097  30.87243 -3.29658  -0.64987 37.3253701730870  -3.2662094
 2014-Nov-07 00:00 2456968.500000000 *    42.49521  30.86784 -3.29892  -0.66820 37.3238125589886  -2.7578617
 2014-Nov-08 00:00 2456969.500000000 *    42.46943  30.86313 -3.30011  -0.68622 37.3225501989369  -2.2483271
 2014-Nov-09 00:00 2456970.500000000 *    42.44367  30.85830 -3.30015  -0.70392 37.3215837216943  -1.7376105
 2014-Nov-10 00:00 2456971.500000000 *    42.41791  30.85335 -3.29901  -0.72130 37.3209137430376  -1.2257519
 2014-Nov-11 00:00 2456972.500000000 *    42.39218  30.84829 -3.29668  -0.73835 37.3205408440994  -0.7128299
 2014-Nov-12 00:00 2456973.500000000 *    42.36648  30.84311 -3.29314  -0.75505 37.3204655499114  -0.1989578
 2014-Nov-13 00:00 2456974.500000000 *    42.34081  30.83782 -3.28838  -0.77141 37.3206883112794   0.3157233
 2014-Nov-14 00:00 2456975.500000000 *    42.31520  30.83242 -3.28239  -0.78741 37.3212094911855   0.8310527
 2014-Nov-15 00:00 2456976.500000000 *    42.28965  30.82692 -3.27514  -0.80305 37.3220293553768   1.3468563
 2014-Nov-16 00:00 2456977.500000000 *    42.26417  30.82131 -3.26664  -0.81830 37.3231480659055   1.8629504
 2014-Nov-17 00:00 2456978.500000000 *    42.23877  30.81560 -3.25687  -0.83316 37.3245656760102   2.3791428
 2014-Nov-18 00:00 2456979.500000000 *    42.21346  30.80979 -3.24583  -0.84762 37.3262821246815   2.8952305
 2014-Nov-19 00:00 2456980.500000000 *    42.18825  30.80389 -3.23349  -0.86167 37.3282972294331   3.4109957
 2014-Nov-20 00:00 2456981.500000000 *    42.16314  30.79790 -3.21986  -0.87530 37.3306106761836   3.9262003
 2014-Nov-21 00:00 2456982.500000000 *    42.13816  30.79181 -3.20493  -0.88849 37.3332220058590   4.4405801
 2014-Nov-22 00:00 2456983.500000000 *m   42.11331  30.78564 -3.18869  -0.90123 37.3361305984034   4.9538422
 2014-Nov-23 00:00 2456984.500000000 *m   42.08859  30.77938 -3.17115  -0.91351 37.3393356562616   5.4656663
 2014-Nov-24 00:00 2456985.500000000 *m   42.06403  30.77305 -3.15231  -0.92532 37.3428361906575   5.9757128
 2014-Nov-25 00:00 2456986.500000000 *m   42.03963  30.76664 -3.13218  -0.93665 37.3466310145094   6.4836378
 2014-Nov-26 00:00 2456987.500000000 *m   42.01539  30.76015 -3.11079  -0.94748 37.3507187450447   6.9891111
 2014-Nov-27 00:00 2456988.500000000 *m   41.99134  30.75359 -3.08817  -0.95782 37.3550978171484   7.4918344
 2014-Nov-28 00:00 2456989.500000000 *m   41.96748  30.74697 -3.06434  -0.96765 37.3597665060083   7.9915547
 2014-Nov-29 00:00 2456990.500000000 *m   41.94381  30.74028 -3.03934  -0.97699 37.3647229557931   8.4880721
 2014-Nov-30 00:00 2456991.500000000 *m   41.92035  30.73353 -3.01320  -0.98583 37.3699652105616   8.9812395
 2014-Dec-01 00:00 2456992.500000000 *m   41.89711  30.72673 -2.98597  -0.99418 37.3754912441632   9.4709597
 2014-Dec-02 00:00 2456993.500000000 *m   41.87409  30.71987 -2.95766  -1.00204 37.3812989868226   9.9571774
 2014-Dec-03 00:00 2456994.500000000 *m   41.85131  30.71296 -2.92829  -1.00942 37.3873863467806  10.4398697
 2014-Dec-04 00:00 2456995.500000000 *m   41.82876  30.70601 -2.89790  -1.01633 37.3937512256357  10.9190341
 2014-Dec-05 00:00 2456996.500000000 *m   41.80647  30.69901 -2.86649  -1.02276 37.4003915262113  11.3946745
 2014-Dec-06 00:00 2456997.500000000 *    41.78443  30.69197 -2.83406  -1.02872 37.4073051522965  11.8667877
 2014-Dec-07 00:00 2456998.500000000 *    41.76265  30.68489 -2.80062  -1.03421 37.4144900006544  12.3353504
 2014-Dec-08 00:00 2456999.500000000 *    41.74115  30.67778 -2.76616  -1.03923 37.4219439469966  12.8003113
 2014-Dec-09 00:00 2457000.500000000 *    41.71993  30.67063 -2.73070  -1.04378 37.4296648286294  13.2615881
 2014-Dec-10 00:00 2457001.500000000 *    41.69899  30.66346 -2.69421  -1.04785 37.4376504267432  13.7190686
 2014-Dec-11 00:00 2457002.500000000 *    41.67835  30.65627 -2.65671  -1.05144 37.4458984507580  14.1726167
 2014-Dec-12 00:00 2457003.500000000 *    41.65801  30.64905 -2.61819  -1.05454 37.4544065260783  14.6220778
 2014-Dec-13 00:00 2457004.500000000 *    41.63798  30.64182 -2.57865  -1.05716 37.4631721854743  15.0672856
 2014-Dec-14 00:00 2457005.500000000 *    41.61827  30.63457 -2.53810  -1.05928 37.4721928634045  15.5080655
 2014-Dec-15 00:00 2457006.500000000 *    41.59889  30.62731 -2.49655  -1.06090 37.4814658920361  15.9442369
